ONEWEB-0549             
1 56051U 23043F   24168.69472704  .00000069  00000+0  13530-3 0  9998
2 56051  87.9291  29.3973 0001987  81.1214 279.0145 13.21827451 61728
ONEWEB-0550             
1 56052U 23043G   24168.90919390  .00000040  00000+0  64934-4 0  9994
2 56052  87.9290  29.3624 0001995  88.5411 271.5952 13.21827079 61752
ONEWEB-0551             
1 56053U 23043H   24168.92882025 -.00000014  00000+0 -70054-4 0  9994
2 56053  87.9042  44.5580 0002069  77.8916 282.2446 13.15550466 60383
ONEWEB-0552             
1 56054U 23043J   24168.90289899  .00000089  00000+0  18435-3 0  9997
2 56054  87.9288  29.3736 0002213  87.7353 272.4034 13.21825133 61755
ONEWEB-0553             
1 56055U 23043K   24168.62315762  .00000028  00000+0  39311-4 0  9996
2 56055  87.9102  14.2187 0001443  82.6828 277.4467 13.16594966 62846
ONEWEB-0554             
1 56056U 23043L   24168.83849101 -.00000029  00000+0 -11043-3 0  9993
2 56056  87.9106  14.1972 0002182 103.1205 257.0169 13.16593534 62855
ONEWEB-0555             
1 56057U 23043M   24168.64849609  .00000079  00000+0  17215-3 0  9996
2 56057  87.9104  14.2068 0001164  97.3042 262.8221 13.16594429 62838
ONEWEB-0557             
1 56058U 23043N   24168.58674584 -.00000018  00000+0 -81723-4 0  9999
2 56058  87.9103  14.2444 0001256 121.1061 239.0193 13.16594370 62823
